1 58555U 23193C   25312.34005053  .00000695  00000+0  38655-4 0  9999
2 58555  97.2678 305.1022 0037855 334.3697  25.5658 15.16305181 68438